0 THOR ABLESTAR DEB
1 00243U 61015BY  13282.01993917  .00000696  00000-0  57359-3 0  6481
2 00243 066.4660 084.7237 0031314 181.7504 294.8286 13.94978194636287
0 THOR ABLESTAR DEB
1 00243U 61015BY  13283.09560420  .00000667  00000-0  55266-3 0  6493
2 00243 066.4661 082.0431 0031215 181.1636 296.6349 13.94979905636433
0 THOR ABLESTAR DEB
1 00243U 61015BY  13284.45412824  .00000669  00000-0  55380-3 0  6509
2 00243 066.4663 078.6576 0031122 180.4381 278.9029 13.94982418636624
0 THOR ABLESTAR DEB
1 00243U 61015BY  13285.45842869  .00000587  00000-0  49359-3 0  6515
2 00243 066.4665 076.1548 0031031 179.8963 282.3355 13.94983908636766
0 THOR ABLESTAR DEB
1 00243U 61015BY  13286.52722459  .00000610  00000-0  51004-3 0  6524
2 00243 066.4668 073.4913 0030933 179.2800 249.7022 13.94985147636911
0 THOR ABLESTAR DEB
1 00243U 61015BY  13287.82603792  .00000762  00000-0  62298-3 0  6532
2 00243 066.4670 070.2546 0030820 178.6376 292.0907 13.94987521637098
0 THOR ABLESTAR DEB
1 00243U 61015BY  13289.47402995  .00000704  00000-0  57943-3 0  6545
2 00243 066.4673 066.1478 0030667 177.6926 288.1311 13.94991244637326
0 THOR ABLESTAR DEB
1 00243U 61015BY  13290.69156369  .00000811  00000-0  65869-3 0  6558
2 00243 066.4674 063.1138 0030543 176.9581 282.5058 13.94993218637496
0 THOR ABLESTAR DEB
1 00243U 61015BY  13291.83409557  .00000836  00000-0  67767-3 0  6562
2 00243 066.4675 060.2667 0030426 176.2997 260.2062 13.94994858637653
0 THOR ABLESTAR DEB
1 00243U 61015BY  13293.48087233  .00000940  00000-0  75445-3 0  6577
2 00243 066.4675 056.1631 0030268 175.3493 250.1984 13.94998364637885
0 THOR ABLESTAR DEB
1 00243U 61015BY  13294.70769795  .00000930  00000-0  74674-3 0  6586
2 00243 066.4676 053.1059 0030144 174.6367 291.2391 13.95000427638055
0 THOR ABLESTAR DEB
1 00243U 61015BY  13295.71190740  .00000887  00000-0  71475-3 0  6594
2 00243 066.4676 050.6034 0030037 174.0853 294.2902 13.95002201638193
